NORAD_CAT_ID,OBJECT_NAME,OBJECT_TYPE,EPOCH,MEAN_MOTION,ECCENTRICITY,INCLINATION,RA_OF_ASC_NODE,ARG_OF_PERICENTER,MEAN_ANOMALY,BSTAR,MEAN_MOTION_DOT,MEAN_MOTION_DDOT,TLE_LINE0,TLE_LINE1,TLE_LINE2,SEMIMAJOR_AXIS,PERIOD,APOGEE,PERIGEE,DECAYED
50172.0,STARLINK-3287,PAYLOAD,2022-03-05 16:00:00,15.35115626,0.0001814,53.2173,347.5833,39.987,167.3086,-0.020566,-0.00660812,0.0,0 STARLINK-3287,1 50172U 21125S   22064.66667824 -.00660812  00000-0 -20566-1 0  9990,2 50172  53.2173 347.5833 0001814  39.9870 167.3086 15.35115626 14923,6838.714,93.804,461.82,459.339,0.0
50172.0,STARLINK-3287,PAYLOAD,2022-03-05 22:00:01,15.347655599999998,0.0001906,53.2177,346.4162,36.5669,113.0068,-0.020792,-0.00660639,0.0,0 STARLINK-3287,1 50172U 21125S   22064.91668981 -.00660639  00000-0 -20792-1 0  9991,2 50172  53.2177 346.4162 0001906  36.5669 113.0068 15.34765560  3687,6839.754,93.825,462.923,460.315,0.0
50172.0,STARLINK-3287,PAYLOAD,2022-03-06 14:00:01,15.33830845,0.0001773,53.2175,343.3034,40.603,193.2714,-0.021303,-0.006572,0.0,0 STARLINK-3287,1 50172U 21125S   22065.58334491 -.00657200  00000-0 -21303-1 0  9990,2 50172  53.2175 343.3034 0001773  40.6030 193.2714 15.33830845  3663,6842.531999999997,93.883,465.611,463.184,0.0
50172.0,STARLINK-3287,PAYLOAD,2022-03-06 22:00:00,15.33365472,0.0001879,53.2176,341.7501,37.0253,238.1891,-0.021701,-0.00659486,0.0,0 STARLINK-3287,1 50172U 21125S   22065.91667824 -.00659486  00000-0 -21701-1 0  9996,2 50172  53.2176 341.7501 0001879  37.0253 238.1891 15.33365472 15116,6843.917,93.911,467.068,464.496,0.0
50172.0,STARLINK-3287,PAYLOAD,2022-03-07 12:00:00,15.32550432,0.0001603,53.2176,339.032,48.7419,207.4699,-0.022357,-0.00661889,0.0,0 STARLINK-3287,1 50172U 21125S   22066.50001157 -.00661889  00000-0 -22357-1 0  9991,2 50172  53.2176 339.0320 0001603  48.7419 207.4699 15.32550432  3701,6846.343000000003,93.961,469.306,467.111,0.0
50172.0,STARLINK-3287,PAYLOAD,2022-03-07 22:00:00,15.31966953,0.0001798,53.2177,337.0939,34.0342,1.8387,-0.022764,-0.00661692,0.0,0 STARLINK-3287,1 50172U 21125S   22066.91667824 -.00661692  00000-0 -22764-1 0  9999,2 50172  53.2177 337.0939 0001798  34.0342   1.8387 15.31966953  3645,6848.081,93.997,471.17800000000005,468.715,0.0
50172.0,STARLINK-3287,PAYLOAD,2022-03-08 06:00:02,15.31498472,0.0001905,53.2172,335.5447,30.851,44.1841,-0.02295,-0.00657664,0.0,0 STARLINK-3287,1 50172U 21125S   22067.25002315 -.00657664  00000-0 -22950-1 0  9996,2 50172  53.2172 335.5447 0001905  30.8510  44.1841 15.31498472 15327,6849.478,94.026,472.648,470.038,0.0
50172.0,STARLINK-3287,PAYLOAD,2022-03-08 14:00:01,15.31031697,0.000174,53.2173,333.9941,37.474,76.0365,-0.023308,-0.00658165,0.0,0 STARLINK-3287,1 50172U 21125S   22067.58334491 -.00658165  00000-0 -23308-1 0  9990,2 50172  53.2173 333.9941 0001740  37.4740  76.0365 15.31031697  3676,6850.87,94.054,473.927,471.543,0.0
50172.0,STARLINK-3287,PAYLOAD,2022-03-08 22:00:00,15.30565128,0.0001951,53.2174,332.4474,35.5137,115.9734,-0.023655,-0.00658313,0.0,0 STARLINK-3287,1 50172U 21125S   22067.91667824 -.00658313  00000-0 -23655-1 0  9996,2 50172  53.2174 332.4474 0001951  35.5137 115.9734 15.30565128  3689,6852.262,94.083,475.464,472.79,0.0
50172.0,STARLINK-3287,PAYLOAD,2022-03-09 06:00:00,15.30099374,0.0001977,53.2171,330.9014,36.1091,152.7935,-0.024028,-0.00659012,0.0,0 STARLINK-3287,1 50172U 21125S   22068.25001157 -.00659012  00000-0 -24028-1 0  9997,2 50172  53.2171 330.9014 0001977  36.1091 152.7935 15.30099374 15470,6853.653,94.112,476.87300000000016,474.163,0.0
50172.0,STARLINK-3287,PAYLOAD,2022-03-09 14:00:01,15.296321100000002,0.000173,53.2172,329.3540000000001,43.4964,182.2635,-0.024341,-0.00658019,0.0,0 STARLINK-3287,1 50172U 21125S   22068.58334491 -.00658019  00000-0 -24341-1 0  9997,2 50172  53.2172 329.3540 0001730  43.4964 182.2635 15.29632110  3677,6855.0480000000025,94.14,478.099,475.727,0.0
50172.0,STARLINK-3287,PAYLOAD,2022-03-09 22:00:01,15.29164919,0.0001893,53.2174,327.8109,38.3244,223.7939,-0.024653,-0.00656977,0.0,0 STARLINK-3287,1 50172U 21125S   22068.91668981 -.00656977  00000-0 -24653-1 0  9995,2 50172  53.2174 327.8109 0001893  38.3244 223.7939 15.29164919  3650,6856.444,94.169,479.607,477.011,0.0
50172.0,STARLINK-3287,PAYLOAD,2022-03-10 14:00:01,15.28127867,0.000175,53.217,324.7254,40.4773,292.5384,-0.019544,-0.00507875,0.0,0 STARLINK-3287,1 50172U 21125S   22069.58334491 -.00507875  00000-0 -19544-1 0  9990,2 50172  53.2170 324.7254 0001750  40.4773 292.5384 15.28127867  3621,6859.545999999999,94.233,482.611,480.211,0.0
50172.0,STARLINK-3287,PAYLOAD,2022-03-10 20:00:01,15.27882961,0.0001798,53.2175,323.569,41.4975,227.478,-0.025717,-0.00658654,0.0,0 STARLINK-3287,1 50172U 21125S   22069.83334491 -.00658654  00000-0 -25717-1 0  9999,2 50172  53.2175 323.5690 0001798  41.4975 227.4780 15.27882961 15716,6860.279,94.248,483.378,480.911,0.0
50172.0,STARLINK-3287,PAYLOAD,2022-03-10 22:00:01,15.27766965,0.0001751,53.2174,323.1843,37.0101,330.6293,-0.025858,-0.00659819,0.0,0 STARLINK-3287,1 50172U 21125S   22069.91668981 -.00659819  00000-0 -25858-1 0  9992,2 50172  53.2174 323.1843 0001751  37.0101 330.6293 15.27766965  3653,6860.626,94.255,483.693,481.29,0.0
50172.0,STARLINK-3287,PAYLOAD,2022-03-11 14:00:01,15.26832438,0.0001641,53.2173,320.1039,39.4383,35.6837,-0.026534,-0.00658109,0.0,0 STARLINK-3287,1 50172U 21125S   22070.58334491 -.00658109  00000-0 -26534-1 0  9996,2 50172  53.2173 320.1039 0001641  39.4383  35.6837 15.26832438  3634,6863.425,94.313,486.417,484.164,0.0
50172.0,STARLINK-3287,PAYLOAD,2022-03-11 22:00:00,15.26366795,0.0001981,53.2173,318.5678,33.2594,74.7925,-0.026972,-0.00659493,0.0,0 STARLINK-3287,1 50172U 21125S   22070.91667824 -.00659493  00000-0 -26972-1 0  9995,2 50172  53.2173 318.5678 0001981  33.2594  74.7925 15.26366795 15887,6864.821,94.342,488.046,485.326,0.0
50172.0,STARLINK-3287,PAYLOAD,2022-03-12 14:00:01,15.2543447,0.0001837,53.2172,315.4937,40.5024,131.7311,-0.027816,-0.00661036,0.0,0 STARLINK-3287,1 50172U 21125S   22071.58334491 -.00661036  00000-0 -27816-1 0  9994,2 50172  53.2172 315.4937 0001837  40.5024 131.7311 15.25434470  3660,6867.618,94.399,490.745,488.222,0.0
50172.0,STARLINK-3287,PAYLOAD,2022-03-12 22:00:00,15.249653899999998,0.0001979,53.2173,313.9607,38.9258,164.5572,-0.028012,-0.0065668,0.0,0 STARLINK-3287,1 50172U 21125S   22071.91667824 -.00656680  00000-0 -28012-1 0  9998,2 50172  53.2173 313.9607 0001979  38.9258 164.5572 15.24965390  3667,6869.026,94.428,492.251,489.532,0.0
50172.0,STARLINK-3287,PAYLOAD,2022-03-13 06:00:00,15.24501459,0.0001575,53.2172,312.4272,54.2733,179.8976,-0.0286,-0.00660799,0.0,0 STARLINK-3287,1 50172U 21125S   22072.25001157 -.00660799  00000-0 -28600-1 0  9996,2 50172  53.2172 312.4272 0001575  54.2733 179.8976 15.24501459 16088,6870.42,94.457,493.367,491.203,0.0
50172.0,STARLINK-3287,PAYLOAD,2022-03-13 14:00:01,15.24033341,0.0001656,53.2173,310.8931,47.2858,217.0149,-0.028897,-0.00658525,0.0,0 STARLINK-3287,1 50172U 21125S   22072.58334491 -.00658525  00000-0 -28897-1 0  9994,2 50172  53.2173 310.8931 0001656  47.2858 217.0149 15.24033341  3660,6871.8269999999975,94.486,494.83,492.554,0.0
50172.0,STARLINK-3287,PAYLOAD,2022-03-13 22:00:01,15.23566521,0.0001968,53.2173,309.3637,35.5602,258.3705,-0.029272,-0.00657897,0.0,0 STARLINK-3287,1 50172U 21125S   22072.91668981 -.00657897  00000-0 -29272-1 0  9994,2 50172  53.2173 309.3637 0001968  35.5602 258.3705 15.23566521  3654,6873.23,94.515,496.448,493.74300000000005,0.0
50172.0,STARLINK-3287,PAYLOAD,2022-03-14 14:00:01,15.22632199,0.0001710999999999,53.2174,306.3027,39.098,312.2874,-0.030004,-0.00655938,0.0,0 STARLINK-3287,1 50172U 21125S   22073.58335648 -.00655938  00000-0 -30004-1 0  9998,2 50172  53.2174 306.3027 0001711  39.0980 312.2874 15.22632199 16283,6876.042,94.573,499.083,496.73,0.0
50172.0,STARLINK-3287,PAYLOAD,2022-03-14 20:00:01,15.22283774,0.000182,53.2173,305.1582,38.322,243.965,-0.030396,-0.00657555,0.0,0 STARLINK-3287,1 50172U 21125S   22073.83334491 -.00657555  00000-0 -30396-1 0  9992,2 50172  53.2173 305.1582 0001820  38.3220 243.9650 15.22283774  3622,6877.090999999999,94.595,500.207,497.704,0.0
50172.0,STARLINK-3287,PAYLOAD,2022-03-15 02:00:01,15.21929951,0.0001983,53.2174,304.0135,37.2951,175.6444,-0.030402,-0.00651314,0.0,0 STARLINK-3287,1 50172U 21125S   22074.08334491 -.00651314  00000-0 -30402-1 0  9995,2 50172  53.2174 304.0135 0001983  37.2951 175.6444 15.21929951  3630,6878.156999999997,94.617,501.386,498.658,0.0
50172.0,STARLINK-3287,PAYLOAD,2022-03-15 22:00:00,15.20769019,0.0002136,53.2173,300.1994,30.8382,68.6602,-0.031967,-0.00661043,0.0,0 STARLINK-3287,1 50172U 21125S   22074.91667824 -.00661043  00000-0 -31967-1 0  9993,2 50172  53.2173 300.1994 0002136  30.8382  68.6602 15.20769019 16498,6881.656999999997,94.689,504.992,502.052,0.0
50172.0,STARLINK-3287,PAYLOAD,2022-03-16 14:00:01,15.19834813,0.0002006,53.2175,297.1514,35.3607,114.8645,-0.032719,-0.00658481,0.0,0 STARLINK-3287,1 50172U 21125S   22075.58334491 -.00658481  00000-0 -32719-1 0  9996,2 50172  53.2175 297.1514 0002006  35.3607 114.8645 15.19834813  3646,6884.476,94.747,507.722,504.96,0.0
50172.0,STARLINK-3287,PAYLOAD,2022-03-16 20:00:01,15.19485126,0.0001993,53.2174,296.0118,33.5427,45.1257,-0.033102,-0.00666528,0.0,0 STARLINK-3287,1 50172U 21125S   22075.83334491 -.00666528  00000-0 -33102-1 0  9992,2 50172  53.2174 296.0118 0001993  33.5427  45.1257 15.19485126  3630,6885.533,94.769,508.77,506.025,0.0
50172.0,STARLINK-3287,PAYLOAD,2022-03-17 06:00:00,15.1890155,0.0001761,53.2173,294.1106,45.7356,152.9724,-0.033631,-0.0066579,0.0,0 STARLINK-3287,1 50172U 21125S   22076.25001157 -.00665790  00000-0 -33631-1 0  9996,2 50172  53.2173 294.1106 0001761  45.7356 152.9724 15.18901550 16693,6887.295999999999,94.805,510.374,507.948,0.0
